{
    "links": {
        "self": "http://www.neowsapp.com/rest/v1/neo/3600235?api_key=iIulBulltgU6a56xZRHN4H3l9WmuAYTsLGpBGhQ2"
    },
    "id": "3600235",
    "neo_reference_id": "3600235",
    "name": "(2012 DU60)",
    "designation": "2012 DU60",
    "nasa_jpl_url": "http://ssd.jpl.nasa.gov/sbdb.cgi?sstr=3600235",
    "absolute_magnitude_h": 25.4,
    "estimated_diameter": {
        "kilometers": {
            "estimated_diameter_min": 0.022108281,
            "estimated_diameter_max": 0.0494356193
        },
        "meters": {
            "estimated_diameter_min": 22.1082810359,
            "estimated_diameter_max": 49.435619262
        },
        "miles": {
            "estimated_diameter_min": 0.0137374447,
            "estimated_diameter_max": 0.0307178602
        },
        "feet": {
            "estimated_diameter_min": 72.5337327539,
            "estimated_diameter_max": 162.1903570994
        }
    },
    "is_potentially_hazardous_asteroid": false,
    "close_approach_data": [
        {
            "close_approach_date": "1951-07-15",
            "close_approach_date_full": "1951-Jul-15 03:50",
            "epoch_date_close_approach": -582754200000,
            "relative_velocity": {
                "kilometers_per_second": "13.5364755184",
                "kilometers_per_hour": "48731.3118663642",
                "miles_per_hour": "30279.7420871861"
            },
            "miss_distance": {
                "astronomical": "0.0571206153",
                "lunar": "22.2199193517",
                "kilometers": "8545122.381969411",
                "miles": "5309692.8344274318"
            },
            "orbiting_body": "Mars"
        },
        {
            "close_approach_date": "2012-03-03",
            "close_approach_date_full": "2012-Mar-03 11:14",
            "epoch_date_close_approach": 1330773240000,
            "relative_velocity": {
                "kilometers_per_second": "8.2874899831",
                "kilometers_per_hour": "29834.9639390266",
                "miles_per_hour": "18538.2863431135"
            },
            "miss_distance": {
                "astronomical": "0.0233794484",
                "lunar": "9.0946054276",
                "kilometers": "3497515.682414908",
                "miles": "2173255.4698574104"
            },
            "orbiting_body": "Earth"
        },
        {
            "close_approach_date": "2065-02-07",
            "close_approach_date_full": "2065-Feb-07 12:47",
            "epoch_date_close_approach": 3001236420000,
            "relative_velocity": {
                "kilometers_per_second": "16.7124407015",
                "kilometers_per_hour": "60164.7865253006",
                "miles_per_hour": "37384.0586051236"
            },
            "miss_distance": {
                "astronomical": "0.2984422806",
                "lunar": "116.0940471534",
                "kilometers": "44646329.495702322",
                "miles": "27741942.7376511636"
            },
            "orbiting_body": "Earth"
        }
    ],
    "orbital_data": {
        "orbit_id": "6",
        "orbit_determination_date": "2017-04-06 08:50:42",
        "first_observation_date": "2012-02-29",
        "last_observation_date": "2012-03-03",
        "data_arc_in_days": 3,
        "observations_used": 13,
        "orbit_uncertainty": "8",
        "minimum_orbit_intersection": ".0109955",
        "jupiter_tisserand_invariant": "3.933",
        "epoch_osculation": "2455987.5",
        "eccentricity": ".4598930668085884",
        "semi_major_axis": "1.800037642650703",
        "inclination": "3.353323018918971",
        "ascending_node_longitude": "338.1974888249522",
        "orbital_period": "882.1060641731375",
        "perihelion_distance": ".9722128108011695",
        "perihelion_argument": "212.9412169088359",
        "aphelion_distance": "2.627862474500237",
        "perihelion_time": "2456012.281190290255",
        "mean_anomaly": "349.8864446501064",
        "mean_motion": ".4081141878754165",
        "equinox": "J2000",
        "orbit_class": {
            "orbit_class_type": "APO",
            "orbit_class_description": "Near-Earth asteroid orbits which cross the Earth’s orbit similar to that of 1862 Apollo",
            "orbit_class_range": "a (semi-major axis) > 1.0 AU; q (perihelion) < 1.017 AU"
        }
    },
    "is_sentry_object": false
}